STARLINK-31680          
1 59380U 24062G   24107.58334491 -.01758570  00000+0 -24783-1 0  9999
2 59380  53.1599 246.0593 0001304  60.1937  59.2615 15.59084415  3151
STARLINK-31713          
1 59381U 24062H   24107.91667824 -.01724891  00000+0 -25451-1 0  9998
2 59381  53.1595 244.4401 0001504  44.7863 147.8228 15.57816698  3558
STARLINK-31705          
1 59382U 24062J   24107.91667824 -.01702591  00000+0 -25286-1 0  9998
2 59382  53.1594 244.4343 0002090  42.1020 153.7831 15.57599083  3373
STARLINK-31709          
1 59383U 24062K   24107.58334491 -.01756660  00000+0 -24763-1 0  9998
2 59383  53.1597 246.0469 0001303  62.1537  63.1918 15.59073720  3507
STARLINK-31715          
1 59384U 24062L   24107.58334491 -.01758189  00000+0 -24791-1 0  9998
2 59384  53.1600 246.0433 0001089  57.1162  70.1916 15.59071642  3500
STARLINK-31717          
1 59385U 24062M   24107.58334491 -.01758334  00000+0 -24795-1 0  9995
2 59385  53.1600 246.0390 0001234  55.5665  73.7039 15.59068514  3504
STARLINK-31688          
1 59386U 24062N   24107.58334491 -.01756740  00000+0 -24774-1 0  9992
2 59386  53.1600 246.0350 0001238  60.4117  70.8235 15.59064075  3506
STARLINK-31714          
1 59387U 24062P   24107.58334491 -.01757092  00000+0 -24786-1 0  9997
2 59387  53.1600 246.0265 0001162  59.2079  75.9539 15.59057990  3322
STARLINK-31643          
1 59388U 24062Q   24107.58334491 -.01756009  00000+0 -24766-1 0  9993
2 59388  53.1597 246.0307 0001228  59.7304  73.4685 15.59060427  3508
STARLINK-31647          
1 59389U 24062R   24107.58334491 -.01756574  00000+0 -24781-1 0  9998
2 59389  53.1597 246.0226 0001211  64.0245  73.1007 15.59054166  3502
STARLINK-31649          
1 59390U 24062S   24107.58334491 -.01754267  00000+0 -24748-1 0  9990
2 59390  53.1599 246.0183 0001290  60.0061  79.0823 15.59049816  3504
STARLINK-31644          
1 59391U 24062T   24107.58334491 -.01755947  00000+0 -24777-1 0  9999
2 59391  53.1595 246.0143 0001260  57.2275  83.8240 15.59047489  3509
STARLINK-31626          
1 59392U 24062U   24107.58334491 -.01763841  00000+0 -24903-1 0  9993
2 59392  53.1598 246.0105 0000828  68.8369  74.1758 15.59050161  3500
STARLINK-31443          
1 59393U 24062V   24107.83335648 -.00111677  00000+0 -38498-3 0  9996
2 59393  53.1629 243.8160 0000430  54.6428 174.8864 15.88986969  3535
STARLINK-31607          
1 59394U 24062W   24107.58334491 -.01755740  00000+0 -24783-1 0  9990
2 59394  53.1600 246.0022 0001251  56.7721  90.1693 15.59037816  3501
2024-063A               
1 59395U 24063A   24107.13194036 -.00001389  00000+0 -55478-4 0  9992
2 59395  34.9923  67.3036 0005331  15.8581 103.8468 15.23383099  2014
2024-063B               
1 59396U 24063B   24107.61283327  .00017543  00000+0  82277-3 0  9991
2 59396  34.7259  64.1272 0025789   5.4390 354.6595 15.18508111  2075
STARLINK-31608          
1 59397U 24062X   24107.58334491 -.01755825  00000+0 -24787-1 0  9991
2 59397  53.1600 245.9982 0001356  69.9024  79.0027 15.59034040  3294
STARLINK-31534          
1 59398U 24064A   24107.58334491 -.01735068  00000+0 -14098-1 0  9995
2 59398  43.0020  40.4373 0001433 273.5806 166.6900 15.72861018  2906
STARLINK-31544          
1 59399U 24064B   24107.58334491 -.01734660  00000+0 -14099-1 0  9994
2 59399  43.0019  40.4271 0001358 275.6437 168.6207 15.72854036  2961
STARLINK-31545          
1 59400U 24064C   24107.58334491 -.01734138  00000+0 -14092-1 0  9990
2 59400  43.0019  40.4320 0001427 275.9629 166.3093 15.72856826  2969
STARLINK-31507          
1 59401U 24064D   24107.58334491 -.01735847  00000+0 -14112-1 0  9992
2 59401  43.0020  40.4218 0001332 272.3589 173.9090 15.72851020  2905
STARLINK-31543          
1 59402U 24064E   24107.58334491 -.01735139  00000+0 -14108-1 0  9992
2 59402  43.0018  40.4171 0001327 271.7318 176.5355 15.72846892  2968
STARLINK-31366          
1 59403U 24064F   24107.58334491 -.01735611  00000+0 -14114-1 0  9995
2 59403  43.0019  40.4123 0001428 265.2331 185.0366 15.72843083  2968
STARLINK-31374          
1 59404U 24064G   24107.58334491 -.01735710  00000+0 -14115-1 0  9997
2 59404  43.0019  40.4072 0001698 273.5480 178.7214 15.72839868  2752
STARLINK-31400          
1 59405U 24064H   24107.58334491 -.01735031  00000+0 -14113-1 0  9992
2 59405  43.0017  40.4019 0001503 269.5786 184.6909 15.72835099  2963
STARLINK-31391          
1 59406U 24064J   24107.58334491 -.01737283  00000+0 -14135-1 0  9998
2 59406  43.0022  40.3966 0001507 262.7175 193.5488 15.72833182  2963
STARLINK-31387          
1 59407U 24064K   24107.58334491 -.01735570  00000+0 -14123-1 0  9993
2 59407  43.0018  40.3918 0001306 269.0130 189.2518 15.72829106  2961
STARLINK-31367          
1 59408U 24064L   24107.58334491 -.01287653  00000+0 -74147-2 0  9991
2 59408  43.0036  40.0302 0001742 264.3399 338.0622 15.80602723  2979
STARLINK-31396          
1 59409U 24064M   24107.58334491 -.01737041  00000+0 -14138-1 0  9996
2 59409  43.0018  40.3819 0001677 273.9037 188.3615 15.72822654  2907
STARLINK-31412          
1 59410U 24064N   24107.58334491 -.01734954  00000+0 -14124-1 0  9993
2 59410  43.0017  40.3761 0001358 274.5705 189.6955 15.72817551  2966
STARLINK-31483          
1 59411U 24064P   24107.58334491 -.01735135  00000+0 -14128-1 0  9990
2 59411  43.0017  40.3714 0001329 266.3409 199.9245 15.72814067  2968
STARLINK-31568          
1 59412U 24064Q   24107.58334491 -.01735959  00000+0 -14137-1 0  9995
2 59412  43.0015  40.3662 0001470 264.5451 203.7233 15.72810263  2968
STARLINK-31615          
1 59413U 24064R   24107.58334491 -.01736154  00000+0 -14141-1 0  9999
2 59413  43.0016  40.3610 0001442 264.5985 205.6663 15.72806996  2960
STARLINK-31457          
1 59414U 24064S   24107.58334491 -.01735828  00000+0 -14140-1 0  9996
2 59414  43.0017  40.3557 0001469 260.5604 211.7028 15.72803385  2967
STARLINK-31398          
1 59415U 24064T   24107.58334491 -.01735612  00000+0 -14141-1 0  9999
2 59415  43.0014  40.3512 0001355 266.7242 207.5396 15.72799747  2963
STARLINK-31399          
1 59416U 24064U   24107.58334491 -.01739014  00000+0 -14173-1 0  9995
2 59416  43.0016  40.3464 0001405 266.7295 209.5324 15.72798471  2962
STARLINK-31401          
1 59417U 24064V   24107.58334491 -.01737714  00000+0 -14163-1 0  9990
2 59417  43.0017  40.3414 0001478 271.4736 206.7840 15.72794297  2753
STARLINK-31414          
1 59418U 24064W   24107.58334491 -.01735948  00000+0 -14151-1 0  9995
2 59418  43.0015  40.3363 0001273 266.5060 213.7539 15.72789417  2967
STARLINK-31415          
1 59419U 24064X   24107.58334491 -.01736767  00000+0 -14160-1 0  9996
2 59419  43.0017  40.3310 0001390 270.8932 211.3703 15.72785837  2967
STARLINK-31466          
1 59420U 24064Y   24107.58334491 -.01736561  00000+0 -14161-1 0  9991
2 59420  43.0021  40.3258 0001210 276.0434 208.2145 15.72783079  2962
STARLINK-11087 [DTC]    
1 59421U 24065A   24107.83335648 -.00070266  00000+0 -54039-3 0  9998
2 59421  53.1600 274.0310 0001273  81.3042 117.2428 15.71396142  2710
STARLINK-11090 [DTC]    
1 59422U 24065B   24107.58334491 -.00045609  00000+0 -34692-3 0  9992
2 59422  53.1608 275.2377 0000893   0.9566 237.3565 15.71477121  2690
STARLINK-11093 [DTC]    
1 59423U 24065C   24107.58334491 -.00176191  00000+0 -13718-2 0  9999
2 59423  53.1681 275.2093 0000971 105.4392 147.9488 15.71527304  2680
STARLINK-11083 [DTC]    
1 59424U 24065D   24107.83335648 -.00145307  00000+0 -11244-2 0  9990
2 59424  53.1714 273.9457 0001079  80.1452 163.1323 15.71568558  2676
STARLINK-11085 [DTC]    
1 59425U 24065E   24107.58334491 -.00392924  00000+0 -30848-2 0  9998
2 59425  53.1728 275.1505 0000826  48.5420 233.9344 15.71981338  2632
STARLINK-11089 [DTC]    
1 59426U 24065F   24107.83335648  .00350108  00000+0  18097-2 0  9990
2 59426  53.1735 273.7229 0007927 302.2908  50.9561 15.79556754  2724
STARLINK-31757          
1 59427U 24065G   24107.83335648 -.01780078  00000+0 -27508-1 0  9993
2 59427  53.1607 274.2835 0001302  46.4815  28.0192 15.56694238  2728
STARLINK-31752          
1 59428U 24065H   24107.83335648 -.01780398  00000+0 -27524-1 0  9997
2 59428  53.1633 274.2810 0001167  27.9281  48.6011 15.56685456  2721
STARLINK-31773          
1 59429U 24065J   24107.83335648 -.01782724  00000+0 -27576-1 0  9990
2 59429  53.1610 274.2756 0000794  55.3594  23.2005 15.56677584  2728
STARLINK-31772          
1 59430U 24065K   24107.83335648 -.01781834  00000+0 -27572-1 0  9999
2 59430  53.1602 274.2713 0000672  56.9671  23.6225 15.56667577  2721
STARLINK-31613          
1 59431U 24065L   24107.58334491 -.01823822  00000+0 -27255-1 0  9999
2 59431  53.1608 275.4744 0001191  54.3217  65.9903 15.57663651  2687
STARLINK-31780          
1 59432U 24065M   24107.58334491 -.01819330  00000+0 -27199-1 0  9996
2 59432  53.1603 275.4705 0000591  70.9814  51.3722 15.57650127  2682
STARLINK-31740          
1 59433U 24065N   24107.83335648 -.01779962  00000+0 -27573-1 0  9992
2 59433  53.1606 274.2590 0000577  45.9886  40.6923 15.56636010  2723
STARLINK-31580          
1 59434U 24065P   24107.83335648 -.01631732  00000+0 -25204-1 0  9994
2 59434  53.1610 274.2541 0000931  44.2815  44.5997 15.56439365  2721
STARLINK-31696          
1 59435U 24065Q   24107.83335648 -.01779140  00000+0 -27573-1 0  9992
2 59435  53.1602 274.2504 0001129  38.0061  52.7312 15.56617278  2729
STARLINK-31700          
1 59436U 24065R   24107.83335648 -.01780230  00000+0 -27603-1 0  9999
2 59436  53.1602 274.2463 0000884  49.2692  43.4975 15.56608872  2727
STARLINK-31706          
1 59437U 24065S   24107.83335648 -.01779686  00000+0 -27602-1 0  9992
2 59437  53.1602 274.2424 0001151  40.3421  54.4533 15.56598261  2727
